start=new Date('2022-02-10T00:00:00.000Z').valueOf();
sats=[{"APOAPSIS":"488.765","MEAN_MOTION":"15.25987228","RA_OF_ASC_NODE":"354.5155","SEMIMAJOR_AXIS":"6865.960","NORAD_CAT_ID":"49725","PERIAPSIS":"486.884","MEAN_MOTION_DOT":"-0.00193982","LAUNCH_DATE":"2021-12-02","FILE":"3295989","MEAN_MOTION_DDOT":"0.0000000000000","TLE_LINE2":"2 49725  53.2183 354.5155 0001370  75.0997 285.0154 15.25987228 10721","EPHEMERIS_TYPE":"0","PERIOD":"94.365","MEAN_ELEMENT_THEORY":"SGP4","REF_FRAME":"TEME","OBJECT_ID":"2021-115B","EPOCH":"2022-02-09T13:58:56.360064","REV_AT_EPOCH":"1072","INCLINATION":"53.2183","DECAY_DATE":null,"ECCENTRICITY":"0.00013700","CLASSIFICATION_TYPE":"U","OBJECT_NAME":"STARLINK-3218","GP_ID":"195642275","ELEMENT_SET_NO":"999","SITE":"AFETR","TLE_LINE1":"1 49725U 21115B   22040.58259676 -.00193982  00000-0 -76331-2 0  9999","MEAN_ANOMALY":"285.0154","RCS_SIZE":"LARGE","TIME_SYSTEM":"UTC","ARG_OF_PERICENTER":"75.0997","COUNTRY_CODE":"US","BSTAR":"-0.00763310000000","OBJECT_TYPE":"PAYLOAD","CENTER_NAME":"EARTH"},{"REV_AT_EPOCH":"361","INCLINATION":"53.2177","EPOCH":"2022-02-09T14:00:01.000224","OBJECT_ID":"2021-115C","REF_FRAME":"TEME","DECAY_DATE":null,"SEMIMAJOR_AXIS":"6917.817","NORAD_CAT_ID":"49726","RA_OF_ASC_NODE":"3.9683","APOAPSIS":"541.516","MEAN_MOTION":"15.08860698","EPHEMERIS_TYPE":"0","PERIOD":"95.436","MEAN_ELEMENT_THEORY":"SGP4","MEAN_MOTION_DDOT":"0.0000000000000","TLE_LINE2":"2 49726  53.2177   3.9683 0002651  37.7757 146.0207 15.08860698  3615","LAUNCH_DATE":"2021-12-02","FILE":"3295989","PERIAPSIS":"537.848","MEAN_MOTION_DOT":"-0.00039316","RCS_SIZE":"LARGE","TIME_SYSTEM":"UTC","SITE":"AFETR","TLE_LINE1":"1 49726U 21115C   22040.58334491 -.00039316  00000-0 -24641-2 0  9996","MEAN_ANOMALY":"146.0207","ELEMENT_SET_NO":"999","CENTER_NAME":"EARTH","BSTAR":"-0.00246410000000","OBJECT_TYPE":"PAYLOAD","COUNTRY_CODE":"US","ARG_OF_PERICENTER":"37.7757","CLASSIFICATION_TYPE":"U","OBJECT_NAME":"STARLINK-3237","ECCENTRICITY":"0.00026510","GP_ID":"195643026"},{"COUNTRY_CODE":"US","ARG_OF_PERICENTER":"41.5789","CENTER_NAME":"EARTH","OBJECT_TYPE":"PAYLOAD","BSTAR":"-0.00362250000000","ELEMENT_SET_NO":"999","TIME_SYSTEM":"UTC","RCS_SIZE":"LARGE","MEAN_ANOMALY":"122.2488","SITE":"AFETR","TLE_LINE1":"1 49727U 21115D   22040.58334491 -.00057519  00000-0 -36225-2 0  9993","GP_ID":"195641274","CLASSIFICATION_TYPE":"U","OBJECT_NAME":"STARLINK-3242","ECCENTRICITY":"0.00026980","DECAY_DATE":null,"OBJECT_ID":"2021-115D","REF_FRAME":"TEME","INCLINATION":"53.2170","REV_AT_EPOCH":"361","EPOCH":"2022-02-09T14:00:01.000224","FILE":"3295989","LAUNCH_DATE":"2021-12-02","MEAN_MOTION_DOT":"-0.00057519","PERIAPSIS":"537.811","MEAN_ELEMENT_THEORY":"SGP4","PERIOD":"95.436","EPHEMERIS_TYPE":"0","TLE_LINE2":"2 49727  53.2170   3.9801 0002698  41.5789 122.2488 15.08862132  3612","MEAN_MOTION_DDOT":"0.0000000000000","MEAN_MOTION":"15.08862132","APOAPSIS":"541.544","SEMIMAJOR_AXIS":"6917.813","NORAD_CAT_ID":"49727","RA_OF_ASC_NODE":"3.9801"},{"LAUNCH_DATE":"2021-12-02","FILE":"3296246","PERIAPSIS":"537.776","MEAN_MOTION_DOT":"0.00041789","EPHEMERIS_TYPE":"0","MEAN_ELEMENT_THEORY":"SGP4","PERIOD":"95.437","MEAN_MOTION_DDOT":"0.0000000000000","TLE_LINE2":"2 49728  53.2175   2.8593 0002812  47.9944  14.4442 15.08847897 11730","MEAN_MOTION":"15.08847897","APOAPSIS":"541.667","SEMIMAJOR_AXIS":"6917.856","NORAD_CAT_ID":"49728","RA_OF_ASC_NODE":"2.8593","DECAY_DATE":null,"REF_FRAME":"TEME","OBJECT_ID":"2021-115E","REV_AT_EPOCH":"1173","INCLINATION":"53.2175","EPOCH":"2022-02-09T20:00:01.000224","GP_ID":"195647749","CLASSIFICATION_TYPE":"U","OBJECT_NAME":"STARLINK-3240","ECCENTRICITY":"0.00028120","COUNTRY_CODE":"US","ARG_OF_PERICENTER":"47.9944","CENTER_NAME":"EARTH","BSTAR":"0.00262760000000","OBJECT_TYPE":"PAYLOAD","ELEMENT_SET_NO":"999","RCS_SIZE":"LARGE","TIME_SYSTEM":"UTC","SITE":"AFETR","TLE_LINE1":"1 49728U 21115E   22040.83334491  .00041789  00000-0  26276-2 0  9997","MEAN_ANOMALY":"14.4442"},{"ECCENTRICITY":"0.00027830","OBJECT_NAME":"STARLINK-3251","CLASSIFICATION_TYPE":"U","GP_ID":"195642776","MEAN_ANOMALY":"83.5395","SITE":"AFETR","TLE_LINE1":"1 49729U 21115F   22040.58334491 -.00036373  00000-0 -22762-2 0  9991","TIME_SYSTEM":"UTC","RCS_SIZE":"LARGE","ELEMENT_SET_NO":"999","OBJECT_TYPE":"PAYLOAD","BSTAR":"-0.00227620000000","CENTER_NAME":"EARTH","ARG_OF_PERICENTER":"40.1903","COUNTRY_CODE":"US","SEMIMAJOR_AXIS":"6917.762","NORAD_CAT_ID":"49729","RA_OF_ASC_NODE":"3.9874","MEAN_MOTION":"15.08878590","APOAPSIS":"541.553","TLE_LINE2":"2 49729  53.2188   3.9874 0002783  40.1903  83.5395 15.08878590  3612","MEAN_MOTION_DDOT":"0.0000000000000","PERIOD":"95.435","MEAN_ELEMENT_THEORY":"SGP4","EPHEMERIS_TYPE":"0","MEAN_MOTION_DOT":"-0.00036373","PERIAPSIS":"537.702","FILE":"3295989","LAUNCH_DATE":"2021-12-02","EPOCH":"2022-02-09T14:00:01.000224","INCLINATION":"53.2188","REV_AT_EPOCH":"361","REF_FRAME":"TEME","OBJECT_ID":"2021-115F","DECAY_DATE":null},{"GP_ID":"195642526","ECCENTRICITY":"0.00026230","OBJECT_NAME":"STARLINK-3249","CLASSIFICATION_TYPE":"U","ARG_OF_PERICENTER":"44.9799","COUNTRY_CODE":"US","BSTAR":"-0.00129710000000","OBJECT_TYPE":"PAYLOAD","CENTER_NAME":"EARTH","ELEMENT_SET_NO":"999","TLE_LINE1":"1 49730U 21115G   22040.58334491 -.00020892  00000-0 -12971-2 0  9993","SITE":"AFETR","MEAN_ANOMALY":"38.7094","RCS_SIZE":"LARGE","TIME_SYSTEM":"UTC","PERIAPSIS":"537.833","MEAN_MOTION_DOT":"-0.00020892","LAUNCH_DATE":"2021-12-02","FILE":"3295989","MEAN_MOTION_DDOT":"0.0000000000000","TLE_LINE2":"2 49730  53.2180   3.9910 0002623  44.9799  38.7094 15.08872039  3615","EPHEMERIS_TYPE":"0","MEAN_ELEMENT_THEORY":"SGP4","PERIOD":"95.436","MEAN_MOTION":"15.08872039","APOAPSIS":"541.462","SEMIMAJOR_AXIS":"6917.782","NORAD_CAT_ID":"49730","RA_OF_ASC_NODE":"3.9910","DECAY_DATE":null,"OBJECT_ID":"2021-115G","REF_FRAME":"TEME","EPOCH":"2022-02-09T14:00:01.000224","REV_AT_EPOCH":"361","INCLINATION":"53.2180"},{"CLASSIFICATION_TYPE":"U","OBJECT_NAME":"STARLINK-3228","ECCENTRICITY":"0.00024570","GP_ID":"195647121","ELEMENT_SET_NO":"999","TIME_SYSTEM":"UTC","RCS_SIZE":"LARGE","MEAN_ANOMALY":"342.4958","SITE":"AFETR","TLE_LINE1":"1 49731U 21115H   22040.83334491  .00048047  00000-0  30182-2 0  9996","COUNTRY_CODE":"US","ARG_OF_PERICENTER":"40.0380","CENTER_NAME":"EARTH","OBJECT_TYPE":"PAYLOAD","BSTAR":"0.00301820000000","MEAN_MOTION":"15.08818521","APOAPSIS":"541.511","NORAD_CAT_ID":"49731","SEMIMAJOR_AXIS":"6917.946","RA_OF_ASC_NODE":"2.8641","FILE":"3296202","LAUNCH_DATE":"2021-12-02","MEAN_MOTION_DOT":"0.00048047","PERIAPSIS":"538.111","PERIOD":"95.439","MEAN_ELEMENT_THEORY":"SGP4","EPHEMERIS_TYPE":"0","TLE_LINE2":"2 49731  53.2176   2.8641 0002457  40.0380 342.4958 15.08818521 11730","MEAN_MOTION_DDOT":"0.0000000000000","OBJECT_ID":"2021-115H","REF_FRAME":"TEME","INCLINATION":"53.2176","REV_AT_EPOCH":"1173","EPOCH":"2022-02-09T20:00:01.000224","DECAY_DATE":null},{"SEMIMAJOR_AXIS":"6917.799","NORAD_CAT_ID":"49732","RA_OF_ASC_NODE":"4.0413","APOAPSIS":"541.580","MEAN_MOTION":"15.08866546","MEAN_MOTION_DDOT":"0.0000000000000","TLE_LINE2":"2 49732  53.2041   4.0413 0002770  46.2158 337.5957 15.08866546  3614","EPHEMERIS_TYPE":"0","PERIOD":"95.436","MEAN_ELEMENT_THEORY":"SGP4","PERIAPSIS":"537.748","MEAN_MOTION_DOT":"-0.00035919","LAUNCH_DATE":"2021-12-02","FILE":"3295989","EPOCH":"2022-02-09T14:00:01.000224","REV_AT_EPOCH":"361","INCLINATION":"53.2041","REF_FRAME":"TEME","OBJECT_ID":"2021-115J","DECAY_DATE":null,"ECCENTRICITY":"0.00027700","OBJECT_NAME":"STARLINK-3246","CLASSIFICATION_TYPE":"U","GP_ID":"195642025","TLE_LINE1":"1 49732U 21115J   22040.58334491 -.00035919  00000-0 -22482-2 0  9999","SITE":"AFETR","MEAN_ANOMALY":"337.5957","RCS_SIZE":"LARGE","TIME_SYSTEM":"UTC","ELEMENT_SET_NO":"999","BSTAR":"-0.00224820000000","OBJECT_TYPE":"PAYLOAD","CENTER_NAME":"EARTH","ARG_OF_PERICENTER":"46.2158","COUNTRY_CODE":"US"},{"REF_FRAME":"TEME","OBJECT_ID":"2021-115K","INCLINATION":"53.2146","REV_AT_EPOCH":"1172","EPOCH":"2022-02-09T18:29:18.010176","DECAY_DATE":null,"APOAPSIS":"541.513","MEAN_MOTION":"15.08875121","SEMIMAJOR_AXIS":"6917.773","NORAD_CAT_ID":"49733","RA_OF_ASC_NODE":"3.1685","FILE":"3296119","LAUNCH_DATE":"2021-12-02","MEAN_MOTION_DOT":"0.00014427","PERIAPSIS":"537.763","PERIOD":"95.435","MEAN_ELEMENT_THEORY":"SGP4","EPHEMERIS_TYPE":"0","TLE_LINE2":"2 49733  53.2146   3.1685 0002710  36.0012 324.1162 15.08875121 11722","MEAN_MOTION_DDOT":"0.0000000000000","ELEMENT_SET_NO":"999","TIME_SYSTEM":"UTC","RCS_SIZE":"LARGE","MEAN_ANOMALY":"324.1162","TLE_LINE1":"1 49733U 21115K   22040.77034734  .00014427  00000-0  92178-3 0  9997","SITE":"AFETR","COUNTRY_CODE":"US","ARG_OF_PERICENTER":"36.0012","CENTER_NAME":"EARTH","OBJECT_TYPE":"PAYLOAD","BSTAR":"0.00092178000000","CLASSIFICATION_TYPE":"U","OBJECT_NAME":"STARLINK-3252","ECCENTRICITY":"0.00027100","GP_ID":"195645415"},{"INCLINATION":"53.2189","REV_AT_EPOCH":"1072","EPOCH":"2022-02-09T14:01:28.280640","REF_FRAME":"TEME","OBJECT_ID":"2021-115L","DECAY_DATE":null,"NORAD_CAT_ID":"49734","SEMIMAJOR_AXIS":"6864.344","RA_OF_ASC_NODE":"354.5158","APOAPSIS":"487.463","MEAN_MOTION":"15.26525960","MEAN_ELEMENT_THEORY":"SGP4","PERIOD":"94.332","EPHEMERIS_TYPE":"0","TLE_LINE2":"2 49734  53.2189 354.5158 0001826 315.9174  44.1680 15.26525960 10729","MEAN_MOTION_DDOT":"0.0000000000000","FILE":"3295989","LAUNCH_DATE":"2021-12-02","MEAN_MOTION_DOT":"-0.00154795","PERIAPSIS":"484.956","TIME_SYSTEM":"UTC","RCS_SIZE":"LARGE","MEAN_ANOMALY":"44.1680","SITE":"AFETR","TLE_LINE1":"1 49734U 21115L   22040.58435510 -.00154795  00000-0 -59582-2 0  9990","ELEMENT_SET_NO":"999","CENTER_NAME":"EARTH","OBJECT_TYPE":"PAYLOAD","BSTAR":"-0.00595820000000","COUNTRY_CODE":"US","ARG_OF_PERICENTER":"315.9174","OBJECT_NAME":"STARLINK-3238","CLASSIFICATION_TYPE":"U","ECCENTRICITY":"0.00018260","GP_ID":"195643027"}];
